State,ZIP,City,Address,Email
IL,10900,Chicago,3125 MARTIN LUTHER KING JR BLVD,aibrahim@gmail.com
WA,98004,Seattle,500 W LEDBETTER DR,chunzi@outlook.com
CA,60615,Santa Clara,1814 BICKERS ST,esbeck@optonline.net
IL,10900,Chicago,2800 CANTON ST,jguyer@hotmail.com
WA,98004,Seattle,800 FORT WORTH AVE,jigsaw@hotmail.com
CA,60615,Santa Clara,3326 BURGOYNE ST,jigsaw@hotmail.com
IL,10900,Chicago,7150 N STEMMONS FWY,keiji@optonline.net
WA,98004,Seattle,9252 FLICKERING SHADOW DR,mglee@gmail.com
CA,60615,Santa Clara,9438 LOMA VISTA DR,noneme@msn.com
IL,10900,Chicago,4574 W KIEST BLVD,aibrahim@gmail.com
WA,98004,Seattle,10831 PHANTOM HILL RD,aibrahim@gmail.com
CA,60615,Santa Clara,2880 PEAVY RD,chunzi@outlook.com
IL,10090,Chicago,6363 W CAMP WISDOM RD,danny@att.net
IL,10900,Chicago,3125 MARTIN LUTHER KING JR BLVD,danny@att.net
WA,98004,Seattle,500 W LEDBETTER DR,esbeck@optonline.net
CA,60615,Santa Clara,1814 BICKERS ST,frode@sbcglobal.net
IL,10900,Chicago,2800 CANTON ST,mglee@gmail.com
WA,98004,Seattle,800 FORT WORTH AVE,novanet@msn.com
CA,60615,Santa Clara,3326 BURGOYNE ST,aibrahim@gmail.com
IL,10900,Chicago,7150 N STEMMONS FWY,chunzi@outlook.com
WA,98004,Seattle,9252 FLICKERING SHADOW DR,jguyer@hotmail.com
CA,60615,Santa Clara,9438 LOMA VISTA DR,jguyer@hotmail.com
IL,10900,Chicago,4574 W KIEST BLVD,jigsaw@hotmail.com
WA,98004,Seattle,10831 PHANTOM HILL RD,munson@sbcglobal.net
CA,60615,Santa Clara,2880 PEAVY RD,noneme@msn.com
IL,10090,Chicago,6363 W CAMP WISDOM RD,novanet@msn.com
IL,10900,Chicago,3125 MARTIN LUTHER KING JR BLVD,twoflower@aol.com
WA,98004,Seattle,500 W LEDBETTER DR,danny@att.net
CA,60615,Santa Clara,1814 BICKERS ST,jguyer@hotmail.com
IL,10900,Chicago,2800 CANTON ST,jigsaw@hotmail.com
WA,98004,Seattle,800 FORT WORTH AVE,keiji@optonline.net
CA,60615,Santa Clara,3326 BURGOYNE ST,mglee@gmail.com
IL,10900,Chicago,7150 N STEMMONS FWY,munson@sbcglobal.net
WA,98004,Seattle,9252 FLICKERING SHADOW DR,munson@sbcglobal.net
CA,60615,Santa Clara,9438 LOMA VISTA DR,noneme@msn.com
IL,10900,Chicago,4574 W KIEST BLVD,twoflower@aol.com
WA,98004,Seattle,10831 PHANTOM HILL RD,aibrahim@gmail.com
CA,60615,Santa Clara,2880 PEAVY RD,aibrahim@gmail.com
IL,10090,Chicago,6363 W CAMP WISDOM RD,aibrahim@gmail.com
IL,10900,Chicago,3125 MARTIN LUTHER KING JR BLVD,chunzi@outlook.com
WA,98004,Seattle,500 W LEDBETTER DR,danny@att.net
CA,60615,Santa Clara,1814 BICKERS ST,frode@sbcglobal.net
IL,10900,Chicago,2800 CANTON ST,jigsaw@hotmail.com
WA,98004,Seattle,800 FORT WORTH AVE,mglee@gmail.com
CA,60615,Santa Clara,3326 BURGOYNE ST,novanet@msn.com
IL,10900,Chicago,7150 N STEMMONS FWY,aibrahim@gmail.com
WA,98004,Seattle,9252 FLICKERING SHADOW DR,chunzi@outlook.com
CA,60615,Santa Clara,9438 LOMA VISTA DR,danny@att.net
IL,10900,Chicago,4574 W KIEST BLVD,jigsaw@hotmail.com
WA,98004,Seattle,10831 PHANTOM HILL RD,munson@sbcglobal.net
CA,60615,Santa Clara,2880 PEAVY RD,noneme@msn.com
IL,10090,Chicago,6363 W CAMP WISDOM RD,noneme@msn.com
IL,10900,Chicago,3125 MARTIN LUTHER KING JR BLVD,novanet@msn.com
WA,98004,Seattle,500 W LEDBETTER DR,twoflower@aol.com
CA,60615,Santa Clara,1814 BICKERS ST,chunzi@outlook.com
IL,10900,Chicago,2800 CANTON ST,danny@att.net
WA,98004,Seattle,800 FORT WORTH AVE,danny@att.net
CA,60615,Santa Clara,3326 BURGOYNE ST,esbeck@optonline.net
IL,10900,Chicago,7150 N STEMMONS FWY,jguyer@hotmail.com
WA,98004,Seattle,9252 FLICKERING SHADOW DR,keiji@optonline.net
CA,60615,Santa Clara,9438 LOMA VISTA DR,mglee@gmail.com
IL,10900,Chicago,4574 W KIEST BLVD,noneme@msn.com
WA,98004,Seattle,10831 PHANTOM HILL RD,twoflower@aol.com
CA,60615,Santa Clara,2880 PEAVY RD,chunzi@outlook.com
IL,10090,Chicago,6363 W CAMP WISDOM RD,danny@att.net
IL,10090,Chicago,6363 W CAMP WISDOM RD,esbeck@optonline.net
IL,10900,Chicago,3125 MARTIN LUTHER KING JR BLVD,frode@sbcglobal.net
WA,98004,Seattle,500 W LEDBETTER DR,keiji@optonline.net
CA,60615,Santa Clara,1814 BICKERS ST,keiji@optonline.net
IL,10900,Chicago,2800 CANTON ST,mglee@gmail.com
WA,98004,Seattle,800 FORT WORTH AVE,noneme@msn.com
CA,60615,Santa Clara,3326 BURGOYNE ST,novanet@msn.com
IL,10900,Chicago,7150 N STEMMONS FWY,chunzi@outlook.com
WA,98004,Seattle,9252 FLICKERING SHADOW DR,esbeck@optonline.net
CA,60615,Santa Clara,9438 LOMA VISTA DR,esbeck@optonline.net
IL,10900,Chicago,4574 W KIEST BLVD,frode@sbcglobal.net
WA,98004,Seattle,10831 PHANTOM HILL RD,jguyer@hotmail.com
CA,60615,Santa Clara,2880 PEAVY RD,jigsaw@hotmail.com
IL,10090,Chicago,6363 W CAMP WISDOM RD,mglee@gmail.com
IL,10900,Chicago,3125 MARTIN LUTHER KING JR BLVD,munson@sbcglobal.net
WA,98004,Seattle,500 W LEDBETTER DR,noneme@msn.com
CA,60615,Santa Clara,1814 BICKERS ST,twoflower@aol.com
IL,10900,Chicago,2800 CANTON ST,twoflower@aol.com
WA,98004,Seattle,800 FORT WORTH AVE,aibrahim@gmail.com
CA,60615,Santa Clara,3326 BURGOYNE ST,esbeck@optonline.net
IL,10900,Chicago,7150 N STEMMONS FWY,frode@sbcglobal.net
WA,98004,Seattle,9252 FLICKERING SHADOW DR,jguyer@hotmail.com
CA,60615,Santa Clara,9438 LOMA VISTA DR,keiji@optonline.net
IL,10900,Chicago,4574 W KIEST BLVD,keiji@optonline.net
WA,98004,Seattle,10831 PHANTOM HILL RD,mglee@gmail.com
CA,60615,Santa Clara,2880 PEAVY RD,munson@sbcglobal.net
IL,10090,Chicago,6363 W CAMP WISDOM RD,twoflower@aol.com
IL,10090,Chicago,6363 W CAMP WISDOM RD,chunzi@outlook.com
IL,10900,Chicago,3125 MARTIN LUTHER KING JR BLVD,danny@att.net
WA,98004,Seattle,500 W LEDBETTER DR,frode@sbcglobal.net
CA,60615,Santa Clara,1814 BICKERS ST,jigsaw@hotmail.com
IL,10900,Chicago,2800 CANTON ST,munson@sbcglobal.net
WA,98004,Seattle,800 FORT WORTH AVE,noneme@msn.com
CA,60615,Santa Clara,3326 BURGOYNE ST,novanet@msn.com
IL,10900,Chicago,7150 N STEMMONS FWY,novanet@msn.com
WA,98004,Seattle,9252 FLICKERING SHADOW DR,twoflower@aol.com
CA,60615,Santa Clara,9438 LOMA VISTA DR,aibrahim@gmail.com
IL,10900,Chicago,4574 W KIEST BLVD,esbeck@optonline.net
WA,98004,Seattle,10831 PHANTOM HILL RD,frode@sbcglobal.net
CA,60615,Santa Clara,2880 PEAVY RD,jguyer@hotmail.com
IL,10090,Chicago,6363 W CAMP WISDOM RD,jigsaw@hotmail.com
IL,10900,Chicago,3125 MARTIN LUTHER KING JR BLVD,keiji@optonline.net
WA,98004,Seattle,500 W LEDBETTER DR,mglee@gmail.com
CA,60615,Santa Clara,1814 BICKERS ST,munson@sbcglobal.net
IL,10900,Chicago,2800 CANTON ST,twoflower@aol.com
WA,98004,Seattle,800 FORT WORTH AVE,aibrahim@gmail.com
CA,60615,Santa Clara,3326 BURGOYNE ST,esbeck@optonline.net
IL,10900,Chicago,7150 N STEMMONS FWY,frode@sbcglobal.net
WA,98004,Seattle,9252 FLICKERING SHADOW DR,frode@sbcglobal.net
CA,60615,Santa Clara,9438 LOMA VISTA DR,jguyer@hotmail.com
IL,10900,Chicago,4574 W KIEST BLVD,keiji@optonline.net
WA,98004,Seattle,10831 PHANTOM HILL RD,munson@sbcglobal.net
CA,60615,Santa Clara,2880 PEAVY RD,novanet@msn.com
IL,10090,Chicago,6363 W CAMP WISDOM RD,novanet@msn.com
